[{"OBJECT_NAME":"STARLINK-4314","OBJECT_ID":"2022-077P","EPOCH":"2026-03-09T22:04:53.908896","MEAN_MOTION":15.05644833,"ECCENTRICITY":0.00017052,"INCLINATION":97.6015,"RA_OF_ASC_NODE":251.4481,"ARG_OF_PERICENTER":83.7447,"MEAN_ANOMALY":276.3974,"EPHEMERIS_TYPE":0,"CLASSIFICATION_TYPE":"U","NORAD_CAT_ID":53056,"ELEMENT_SET_NO":999,"REV_AT_EPOCH":20101,"BSTAR":8.5638875e-5,"MEAN_MOTION_DOT":1.175e-5,"MEAN_MOTION_DDOT":0},{"OBJECT_NAME":"HAMSAT (VO-52)","OBJECT_ID":"2005-017B","EPOCH":"2026-03-09T22:34:09.009120","MEAN_MOTION":15.08773202,"ECCENTRICITY":0.00200128,"INCLINATION":97.9995,"RA_OF_ASC_NODE":87.8294,"ARG_OF_PERICENTER":17.3795,"MEAN_ANOMALY":342.8113,"EPHEMERIS_TYPE":0,"CLASSIFICATION_TYPE":"U","NORAD_CAT_ID":28650,"ELEMENT_SET_NO":999,"REV_AT_EPOCH":13179,"BSTAR":0.00045282519,"MEAN_MOTION_DOT":7.08e-5,"MEAN_MOTION_DDOT":0}]
